[{"OBJECT_NAME":"STRAND-1","OBJECT_ID":"2013-009E","EPOCH":"2026-03-09T21:53:59.161920","MEAN_MOTION":14.37095119,"ECCENTRICITY":0.00090423,"INCLINATION":98.3888,"RA_OF_ASC_NODE":251.5986,"ARG_OF_PERICENTER":161.0822,"MEAN_ANOMALY":199.0703,"EPHEMERIS_TYPE":0,"CLASSIFICATION_TYPE":"U","NORAD_CAT_ID":39090,"ELEMENT_SET_NO":999,"REV_AT_EPOCH":68280,"BSTAR":0.00017106883,"MEAN_MOTION_DOT":4.66e-6,"MEAN_MOTION_DDOT":0},{"OBJECT_NAME":"DELTA 1 DEB","OBJECT_ID":"1978-026EZ","EPOCH":"2026-03-09T15:54:32.806944","MEAN_MOTION":14.36190257,"ECCENTRICITY":0.0034725,"INCLINATION":98.7089,"RA_OF_ASC_NODE":101.7193,"ARG_OF_PERICENTER":18.5024,"MEAN_ANOMALY":97.542,"EPHEMERIS_TYPE":0,"CLASSIFICATION_TYPE":"U","NORAD_CAT_ID":13562,"ELEMENT_SET_NO":999,"REV_AT_EPOCH":33973,"BSTAR":0.00050878,"MEAN_MOTION_DOT":1.449e-5,"MEAN_MOTION_DDOT":0}]
